[
    {
        "Altitude(m)": 607895.8522016248,
        "Argument of Periapsis(deg)": 0.0,
        "Eccentricity": 0.0,
        "Inclination(deg)": 60.0,
        "Latitude(deg)": 40.99843389847446,
        "Longitude(deg)": 130.0886998701827,
        "Mean Anomaly(deg)": 130.9091,
        "RAAN(deg)": 80.0,
        "Satellite Name": "Test1 360",
        "Satellite Number": 360,
        "Semi-Major Axis(m)": 6980739.136638005,
        "Time(s)": 0
    },
    {
        "Altitude(m)": 607795.1647575147,
        "Argument of Periapsis(deg)": 0.00010418945913296404,
        "Eccentricity": 0.0,
        "Inclination(deg)": 60.0,
        "Latitude(deg)": 40.53075761798532,
        "Longitude(deg)": 130.58529350851705,
        "Mean Anomaly(deg)": 131.5292061454618,
        "RAAN(deg)": 79.99957995086025,
        "Satellite Name": "Test1 360",
        "Satellite Number": 360,
        "Semi-Major Axis(m)": 6980739.136638005,
        "Time(s)": 10
    }
]